[
    {
        "Altitude(m)": 702759.1561411477,
        "Argument of Periapsis(deg)": 0.010251109067964361,
        "Eccentricity": 0.0,
        "Inclination(deg)": 45.0,
        "Latitude(deg)": 15.621470215458745,
        "Longitude(deg)": 38.159432754059466,
        "Mean Anomaly(deg)": -202.3474050172672,
        "RAAN(deg)": 334.99032325268763,
        "Satellite Name": "Constellation 1 1483",
        "Satellite Number": 1483,
        "Semi-Major Axis(m)": 7083131.272910544,
        "Time(s)": 171
    },
    {
        "Altitude(m)": 702757.5321796437,
        "Argument of Periapsis(deg)": 0.010311057074209765,
        "Eccentricity": 0.0,
        "Inclination(deg)": 45.0,
        "Latitude(deg)": 15.579968542475283,
        "Longitude(deg)": 38.20151708695014,
        "Mean Anomaly(deg)": -202.2867038770174,
        "RAAN(deg)": 334.9902666635221,
        "Satellite Name": "Constellation 1 1483",
        "Satellite Number": 1483,
        "Semi-Major Axis(m)": 7083131.272910544,
        "Time(s)": 172
    },
    {
        "Altitude(m)": 702755.9251979904,
        "Argument of Periapsis(deg)": 0.010371005080455171,
        "Eccentricity": 0.0,
        "Inclination(deg)": 45.0,
        "Latitude(deg)": 15.53845705249812,
        "Longitude(deg)": 38.24358286009966,
        "Mean Anomaly(deg)": -202.2260027367675,
        "RAAN(deg)": 334.9902100743565,
        "Satellite Name": "Constellation 1 1483",
        "Satellite Number": 1483,
        "Semi-Major Axis(m)": 7083131.272910544,
        "Time(s)": 173
    },
    {
        "Altitude(m)": 702754.3352210853,
        "Argument of Periapsis(deg)": 0.010430953086700577,
        "Eccentricity": 0.0,
        "Inclination(deg)": 45.0,
        "Latitude(deg)": 15.496935776890046,
        "Longitude(deg)": 38.28563012839357,
        "Mean Anomaly(deg)": -202.1653015965176,
        "RAAN(deg)": 334.9901534851909,
        "Satellite Name": "Constellation 1 1483",
        "Satellite Number": 1483,
        "Semi-Major Axis(m)": 7083131.272910544,
        "Time(s)": 174
    },
    {
        "Altitude(m)": 702752.7622737653,
        "Argument of Periapsis(deg)": 0.010490901092945983,
        "Eccentricity": 0.0,
        "Inclination(deg)": 45.0,
        "Latitude(deg)": 15.455404746977656,
        "Longitude(deg)": 38.327658946686654,
        "Mean Anomaly(deg)": -202.10460045626766,
        "RAAN(deg)": 334.99009689602536,
        "Satellite Name": "Constellation 1 1483",
        "Satellite Number": 1483,
        "Semi-Major Axis(m)": 7083131.272910544,
        "Time(s)": 175
    },
    {
        "Altitude(m)": 702751.2063807984,
        "Argument of Periapsis(deg)": 0.010550849099191389,
        "Eccentricity": 0.0,
        "Inclination(deg)": 45.0,
        "Latitude(deg)": 15.41386399405165,
        "Longitude(deg)": 38.369669369802644,
        "Mean Anomaly(deg)": -202.04389931601781,
        "RAAN(deg)": 334.9900403068598,
        "Satellite Name": "Constellation 1 1483",
        "Satellite Number": 1483,
        "Semi-Major Axis(m)": 7083131.272910544,
        "Time(s)": 176
    },
    {
        "Altitude(m)": 702749.6675668776,
        "Argument of Periapsis(deg)": 0.010610797105436795,
        "Eccentricity": 0.0,
        "Inclination(deg)": 45.0,
        "Latitude(deg)": 15.372313549366371,
        "Longitude(deg)": 38.41166145253497,
        "Mean Anomaly(deg)": -201.98319817576785,
        "RAAN(deg)": 334.98998371769426,
        "Satellite Name": "Constellation 1 1483",
        "Satellite Number": 1483,
        "Semi-Major Axis(m)": 7083131.272910544,
        "Time(s)": 177
    },
    {
        "Altitude(m)": 702748.145856627,
        "Argument of Periapsis(deg)": 0.0106707451116822,
        "Eccentricity": 0.0,
        "Inclination(deg)": 45.0,
        "Latitude(deg)": 15.330753444140344,
        "Longitude(deg)": 38.453635081548924,
        "Mean Anomaly(deg)": -201.922497035518,
        "RAAN(deg)": 334.9899271285287,
        "Satellite Name": "Constellation 1 1483",
        "Satellite Number": 1483,
        "Semi-Major Axis(m)": 7083131.272910544,
        "Time(s)": 178
    },
    {
        "Altitude(m)": 702746.6412746069,
        "Argument of Periapsis(deg)": 0.010730693117927606,
        "Eccentricity": 0.0,
        "Inclination(deg)": 45.0,
        "Latitude(deg)": 15.289183709556848,
        "Longitude(deg)": 38.49559064777048,
        "Mean Anomaly(deg)": -201.8617958952681,
        "RAAN(deg)": 334.98987053936304,
        "Satellite Name": "Constellation 1 1483",
        "Satellite Number": 1483,
        "Semi-Major Axis(m)": 7083131.272910544,
        "Time(s)": 179
    },
    {
        "Altitude(m)": 702745.1538453004,
        "Argument of Periapsis(deg)": 0.01079064112417301,
        "Eccentricity": 0.0,
        "Inclination(deg)": 45.0,
        "Latitude(deg)": 15.247604376762888,
        "Longitude(deg)": 38.537528037803746,
        "Mean Anomaly(deg)": -201.80109475501817,
        "RAAN(deg)": 334.9898139501975,
        "Satellite Name": "Constellation 1 1483",
        "Satellite Number": 1483,
        "Semi-Major Axis(m)": 7083131.272910544,
        "Time(s)": 180
    },
    {
        "Altitude(m)": 702743.6835931268,
        "Argument of Periapsis(deg)": 0.010850589130418416,
        "Eccentricity": 0.0,
        "Inclination(deg)": 45.0,
        "Latitude(deg)": 15.20601547687012,
        "Longitude(deg)": 38.57944730631925,
        "Mean Anomaly(deg)": -201.74039361476824,
        "RAAN(deg)": 334.98975736103193,
        "Satellite Name": "Constellation 1 1483",
        "Satellite Number": 1483,
        "Semi-Major Axis(m)": 7083131.272910544,
        "Time(s)": 181
    },
    {
        "Altitude(m)": 702742.2305424244,
        "Argument of Periapsis(deg)": 0.01091053713666382,
        "Eccentricity": 0.0,
        "Inclination(deg)": 45.0,
        "Latitude(deg)": 15.164417040954875,
        "Longitude(deg)": 38.62134850795672,
        "Mean Anomaly(deg)": -201.67969247451833,
        "RAAN(deg)": 334.9897007718664,
        "Satellite Name": "Constellation 1 1483",
        "Satellite Number": 1483,
        "Semi-Major Axis(m)": 7083131.272910544,
        "Time(s)": 182
    },
    {
        "Altitude(m)": 702740.7947174804,
        "Argument of Periapsis(deg)": 0.010970485142909228,
        "Eccentricity": 0.0,
        "Inclination(deg)": 45.0,
        "Latitude(deg)": 15.122809100057973,
        "Longitude(deg)": 38.6632316973256,
        "Mean Anomaly(deg)": -201.6189913342685,
        "RAAN(deg)": 334.98964418270083,
        "Satellite Name": "Constellation 1 1483",
        "Satellite Number": 1483,
        "Semi-Major Axis(m)": 7083131.272910544,
        "Time(s)": 183
    },
    {
        "Altitude(m)": 702739.3761424933,
        "Argument of Periapsis(deg)": 0.011030433149154634,
        "Eccentricity": 0.0,
        "Inclination(deg)": 45.0,
        "Latitude(deg)": 15.081191685185116,
        "Longitude(deg)": 38.70509692900449,
        "Mean Anomaly(deg)": -201.5582901940186,
        "RAAN(deg)": 334.9895875935352,
        "Satellite Name": "Constellation 1 1483",
        "Satellite Number": 1483,
        "Semi-Major Axis(m)": 7083131.272910544,
        "Time(s)": 184
    },
    {
        "Altitude(m)": 702737.974841596,
        "Argument of Periapsis(deg)": 0.01109038115540004,
        "Eccentricity": 0.0,
        "Inclination(deg)": 45.0,
        "Latitude(deg)": 15.039564827306602,
        "Longitude(deg)": 38.74694408944457,
        "Mean Anomaly(deg)": -201.49758905376862,
        "RAAN(deg)": 334.98953100436967,
        "Satellite Name": "Constellation 1 1483",
        "Satellite Number": 1483,
        "Semi-Major Axis(m)": 7083131.272910544,
        "Time(s)": 185
    },
    {
        "Altitude(m)": 702736.5908388548,
        "Argument of Periapsis(deg)": 0.011150329161645444,
        "Eccentricity": 0.0,
        "Inclination(deg)": 45.0,
        "Latitude(deg)": 14.997928557358643,
        "Longitude(deg)": 38.788773569357616,
        "Mean Anomaly(deg)": -201.4368879135188,
        "RAAN(deg)": 334.9894744152041,
        "Satellite Name": "Constellation 1 1483",
        "Satellite Number": 1483,
        "Semi-Major Axis(m)": 7083131.272910544,
        "Time(s)": 186
    },
    {
        "Altitude(m)": 702735.2241582632,
        "Argument of Periapsis(deg)": 0.01121027716789085,
        "Eccentricity": 0.0,
        "Inclination(deg)": 45.0,
        "Latitude(deg)": 14.956282906241604,
        "Longitude(deg)": 38.83058525513378,
        "Mean Anomaly(deg)": -201.37618677326884,
        "RAAN(deg)": 334.98941782603856,
        "Satellite Name": "Constellation 1 1483",
        "Satellite Number": 1483,
        "Semi-Major Axis(m)": 7083131.272910544,
        "Time(s)": 187
    },
    {
        "Altitude(m)": 702733.8748237381,
        "Argument of Periapsis(deg)": 0.011270225174136258,
        "Eccentricity": 0.0,
        "Inclination(deg)": 45.0,
        "Latitude(deg)": 14.914627904821485,
        "Longitude(deg)": 38.87237920122977,
        "Mean Anomaly(deg)": -201.31548563301902,
        "RAAN(deg)": 334.989361236873,
        "Satellite Name": "Constellation 1 1483",
        "Satellite Number": 1483,
        "Semi-Major Axis(m)": 7083131.272910544,
        "Time(s)": 188
    },
    {
        "Altitude(m)": 702732.5428591358,
        "Argument of Periapsis(deg)": 0.011330173180381662,
        "Eccentricity": 0.0,
        "Inclination(deg)": 45.0,
        "Latitude(deg)": 14.872963583929486,
        "Longitude(deg)": 38.91415546207187,
        "Mean Anomaly(deg)": -201.25478449276906,
        "RAAN(deg)": 334.9893046477074,
        "Satellite Name": "Constellation 1 1483",
        "Satellite Number": 1483,
        "Semi-Major Axis(m)": 7083131.272910544,
        "Time(s)": 189
    }
]